#dP2023  8 31 18  0  0.00000000      96 __u+U ITR00 EXT  IAC
## 2277 410400.00000000   900.00000000 60187 0.7500000000000
+  119   C06C07C08C09C10C11C12C13C14C16C19C20C21C22C23C24C25
+        C26C27C28C29C30C32C33C34C35C36C37C38C39C40C41C42C43
+        C44C45C46E02E03E04E05E07E08E09E10E11E12E13E14E15E18
+        E19E21E24E25E26E27E30E31E33E34E36G01G02G03G04G05G06
+        G07G08G09G10G11G12G13G14G15G16G17G18G19G20G21G22G23
+        G24G25G26G27G28G29G30G31G32J02J03J04R01R02R03R04R05
+        R07R08R09R11R12R13R14R15R16R17R18R19R20R21R22R24R25
++         9  8 10  9  9 11 10 10  9  8  8  8  9 10  7 10 10
++         9  8  9  8  9  8 10 10  7  9  7  9  9 10  7  8 10
++        10  9  8  7  7  8  8  7  7  8  7  7  6  8  7  8  7
++         7  7  7  7  8  7  7  7  7  7  7  7  7  7  7  8  7
++         8  7  7  7  7  8  9  7  7  8  8  7  9  7  6  7  7
++         7  8  7  8  7  7  7  8  8 11 10  8  8  7  9  9  8
++         7  9  7  8  7  9  9  8  8 11 10  9  8 10  8 11  9
%c M  cc GPS ccc cccc cccc cccc cccc ccccc ccccc ccccc ccccc
%c cc cc ccc ccc cccc cccc cccc cccc ccccc ccccc ccccc ccccc
%f  0.0000000  0.000000000  0.00000000000  0.000000000000000
%f  0.0000000  0.000000000  0.00000000000  0.000000000000000
%i    0    0    0    0      0      0      0      0         0
%i    0    0    0    0      0      0      0      0         0
/* IAC                                ULTRA-RAPID PREDICTION
/* S/V CLOCKS ARE ALIGNED TO GNSS TIME                      
/* G:C1WC2W R:C1PC2P E:C1XC5X C:C2IC6I J:C1CC2S             
/* PCV:IGS20_2274 OL/AL:FES2004  NONE     YN ORB:CoN CLK:CoN
*  2023 09 01 11  0  0.00000000
PC06  -4469.721706  24944.516944  33762.510155    942.681109
PC07 -18134.934307  34392.814934 -16471.286500    -19.595670
PC08  -4510.266119  39162.564837 -14671.150431    365.167094
PC09   4153.744242  28214.865054  31657.059151    220.770661
PC10 -11697.508403  34492.564094 -21354.143895   -164.060732
PC11 -23780.007344   3777.055263 -14065.257381    809.399578
PC12 -26362.516456  -8490.169652   3541.364854    920.813126
PC13     74.101113  41183.553886  -8157.015281    344.378078
PC14 -21679.105457  15106.689173  -9056.433879    328.526284
PC16  -8318.818532  22838.643349  34714.715771    -60.594666
PC19  18512.145283 -20866.707768    -55.467912   -970.800336
PC20  21595.514030  -8382.432718  15541.398213    317.594390
PC21 -11861.947960 -10268.761501 -23072.059725   -960.511942
PC22   4577.376454 -22007.135663 -16532.505963   -326.303113
PC23   3094.108435  26694.251301   7526.323345   -885.681364
PC24 -17540.766775  -3975.622338  21337.474892    345.937212
PC25  -9240.219228  17043.918695  20058.426316    201.823599
PC26 -15470.507171 -20688.218051  10586.598610   -171.458662
PC27  22070.673700  12850.477402 -11270.605088    192.856577
PC28   5724.046167  16671.363851 -21627.909174    144.496064
PC29  16229.416714 -11161.539808  19760.876870    168.665542
PC30  27415.822980   1253.862416   5088.554593     -4.279047
PC32  11841.002007  10318.080058  23072.601711   -529.840146
PC33 -18441.165707  20956.351281    -42.777595   -953.060002
PC34 -27147.744093   -276.311200  -6437.824510    249.878261
PC35  -6102.695137 -16521.544000  21628.908964    555.727105
PC36  10108.702022 -16125.195037 -20383.933273   -247.511876
PC37  14633.373906  21609.047090  -9831.948380   -818.192380
PC38  -9431.465139  35110.695875 -21180.992102    101.944831
PC39 -13820.193073  20132.899613  34396.066171     -4.582668
PC40 -25777.169922  29558.639588 -15803.556320    -34.934818
PC41  -5115.107951  22299.046963  16029.828912   -882.289300
PC42 -21333.431553   7107.528456 -16506.959733   -560.051377
PC43 -17069.417074  10786.024364 -19266.091127     37.824363
PC44 -22395.180948 -12143.275390  11351.031562    217.961639
PC45  -3505.182116 -26788.400062  -7031.667248    -20.636782
PC46  17206.588246   2501.329940 -21815.869926    -80.931204
PE02 -16220.063888  -4285.681383  24389.966891     59.397426
PE03 -27325.075874   -510.039917 -11391.159240    -51.632407
PE04  25937.045859 -12453.703922  -6949.065286   -202.324302
PE05 -12785.982889 -13244.292626 -23180.553420     14.332451
PE07  -9639.665552  18224.714367  21244.355833    -71.624366
PE08 -26161.889986  12210.909503   6554.203530   -139.391863
PE09   9793.060907 -18109.243193 -21264.846968   -140.916653
PE10   8132.667567 -14166.445124  24675.839094   -560.461237
PE11  -1828.041358 -20713.906087  21050.945891   2844.672153
PE12  16057.143346  -6132.078463  24092.506005   -680.548938
PE13   1197.125800  20326.227843 -21484.243523    -19.546979
PE14 -18205.298837 -10720.082866  16822.885159    327.835326
PE15 -16290.816241   5732.122898 -24039.813879    -49.734615
PE18   7220.828094  18014.907065 -22638.365253    480.363287
PE19  26213.815389   2378.463574  13545.413083  -1725.191271
PE21   6887.469279  22612.603188 -17810.561671   -550.063203
PE24   7428.019970 -28663.514542    -17.399354   -297.578536
PE25  -6663.381063 -22867.082399  17586.671068     -1.150192
PE26  18134.885614  22687.731114  -5674.092701    209.677270
PE27  -6934.426202  28767.729045   -564.804943   -139.034281
PE30 -16717.195120  17453.085773  17082.076074   -464.720710
PE31  16502.531766 -17927.042887 -16793.631377     -4.043936
PE33  24009.355338  12503.624385  11953.205163     -0.963901
PE34 -24028.912043 -11959.313067 -12509.149173    -64.683839
PE36 -17738.399614 -22819.987720   6389.356232   -109.649698
PG01  21075.431560  13593.274309   8903.182278    166.671417
PG02  21295.995010  15893.064206   2543.476697   -559.014844
PG03  13857.411127   5097.351107  21934.213631   -158.392743
PG04  24531.956964   1699.592135  10200.380840    143.010436
PG05  -7124.834787 -19805.167853 -16322.809903   -141.036301
PG06   1706.935993 -17243.259966  20164.033520    557.661406
PG07  17868.516406  -1507.432860 -19273.298712     79.482172
PG08  17680.767895   8215.819806 -18288.140938   -140.033919
PG09  25784.064327  -6254.449330   1603.566921    -71.488465
PG10 -10936.395723  22987.797791  -6784.113539    -51.617108
PG11 -10178.389870 -22197.744868  10517.406561   -347.772580
PG12 -11990.937075 -10172.246535  21139.247424   -419.697454
PG13  -8917.182727 -13579.163099 -21245.031551    567.233976
PG14  13509.958728 -20623.171173  -9634.826844    171.693643
PG15 -19096.167638  -6328.112763 -17940.288638     73.293657
PG16   1552.514959  22793.449983 -13459.211044   -460.411026
PG17  18309.926628 -13508.105453  14224.418775    723.401580
PG18 -15960.326711   3858.240703 -20912.287964   -402.560000
PG19  10809.459695 -14726.685373  18950.476710    365.527255
PG20  -1885.685909 -25887.530117  -6046.372385    414.166962
PG21  20716.757527  17396.077301    116.379019    149.736866
PG22  10427.688738 -24488.719682  -1748.306322    130.375157
PG23 -15168.497651  13375.090836 -17121.874190     62.486127
PG24 -21882.928776 -14940.610015   3560.049564   -306.900414
PG25 -16121.878106   5492.870908  19998.410046    465.395634
PG26  -3412.023665  26059.568330  -2271.562318    230.527485
PG27   5215.584693  14338.911893 -22004.738659    -32.094595
PG28  -3291.880351  16533.387624  20504.497936     -4.213488
PG29 -26299.271490   3819.016420   1467.829413   -608.738683
PG30  10755.603809 -11442.362522 -21294.612595   -491.621969
PG31   5677.380428  21062.199820  14669.385718   -222.738324
PG32 -13820.508672  15693.701022  16432.539257   -550.676628
PJ02 -31588.333643  25346.278559  16860.790165     -3.355422
PJ03 -26497.898656  16393.710268 -23826.005395     -1.943557
PJ04 -24387.985036  34326.289688   2262.910662     70.512593
PR01 -16947.432519   2207.897299 -18944.357457     64.679780
PR02 -21022.741021  13921.861639  -3574.478694    -22.478175
PR03 -12503.898493  17720.361583  13417.620564     84.394897
PR04   2378.347833  11453.022032  22689.068331    201.021637
PR05  16197.318767   -812.470038  19704.341280    118.271576
PR07  12014.985398 -17639.886147 -13976.006626     63.671643
PR08  -2629.233329 -11428.873485 -22602.798688    -72.377735
PR09   9200.738008  -9893.360518 -21597.215723    139.860317
PR11  -6427.257323 -23998.900553   5754.282012   -149.465271
PR12 -11416.227515  -9840.829457  20612.993786     30.797624
PR13  -9670.533293   7646.128016  22323.207290    -38.759353
PR14  -1558.868228  23288.570924  10333.567468     25.179394
PR15   6778.348621  23574.202410  -6988.864564     86.545359
PR16  11315.378239  10136.791292 -20486.535487     18.263822
PR17  -2173.179341  10499.278431 -23135.789900     13.733374
PR18  14292.432910  13881.147466 -15939.057577     99.699804
PR19  22687.421280  11461.533849  -2054.621010   -245.618874
PR20  18771.263263    231.814169  17292.798740    -99.301260
PR21   1049.198062 -10848.129513  23064.007554    -34.728885
PR22 -14482.749821 -14579.340619  15133.261521    123.216793
PR24 -18509.229004   1152.189333 -17511.537013    -22.689166
PR25   2739.526453 -10692.855854  23001.656554     39.843532
EOF
